<?xml version="1.0" encoding="UTF-8"?>
<TrainingCenterDatabase xmlns="http://www.garmin.com/xmlschemas/TrainingCenterDatabase/v2">
  <Activities>
    <Activity Sport="Biking">
      <Id>2026-06-03T09:00:00Z</Id>
      <Lap StartTime="2026-06-03T09:00:00Z">
        <TotalTimeSeconds>7200.0</TotalTimeSeconds>
        <DistanceMeters>60000.0</DistanceMeters>
        <MaximumSpeed>13.8</MaximumSpeed>
        <Calories>1450</Calories>
        <Intensity>Active</Intensity>
        <TriggerMethod>Manual</TriggerMethod>
        <Track>
          <Trackpoint>
            <Time>2026-06-03T09:00:00Z</Time>
            <Position>
              <LatitudeDegrees>51.0504</LatitudeDegrees>
              <LongitudeDegrees>3.7228</LongitudeDegrees>
            </Position>
            <AltitudeMeters>8.0</AltitudeMeters>
            <DistanceMeters>0.0</DistanceMeters>
            <HeartRateBpm><Value>110</Value></HeartRateBpm>
            <Cadence>80</Cadence>
            <Extensions>
              <TPX xmlns="http://www.garmin.com/xmlschemas/ActivityExtension/v2">
                <Watts>160</Watts>
              </TPX>
            </Extensions>
          </Trackpoint>
          <Trackpoint>
            <Time>2026-06-03T09:30:00Z</Time>
            <Position>
              <LatitudeDegrees>51.1200</LatitudeDegrees>
              <LongitudeDegrees>3.8500</LongitudeDegrees>
            </Position>
            <AltitudeMeters>45.0</AltitudeMeters>
            <DistanceMeters>15000.0</DistanceMeters>
            <HeartRateBpm><Value>145</Value></HeartRateBpm>
            <Cadence>92</Cadence>
            <Extensions>
              <TPX xmlns="http://www.garmin.com/xmlschemas/ActivityExtension/v2">
                <Watts>210</Watts>
              </TPX>
            </Extensions>
          </Trackpoint>
          <Trackpoint>
            <Time>2026-06-03T10:00:00Z</Time>
            <Position>
              <LatitudeDegrees>51.0800</LatitudeDegrees>
              <LongitudeDegrees>3.9800</LongitudeDegrees>
            </Position>
            <AltitudeMeters>120.0</AltitudeMeters>
            <DistanceMeters>35000.0</DistanceMeters>
            <HeartRateBpm><Value>160</Value></HeartRateBpm>
            <Cadence>95</Cadence>
            <Extensions>
              <TPX xmlns="http://www.garmin.com/xmlschemas/ActivityExtension/v2">
                <Watts>245</Watts>
              </TPX>
            </Extensions>
          </Trackpoint>
          <Trackpoint>
            <Time>2026-06-03T10:30:00Z</Time>
            <Position>
              <LatitudeDegrees>50.9900</LatitudeDegrees>
              <LongitudeDegrees>3.8200</LongitudeDegrees>
            </Position>
            <AltitudeMeters>35.0</AltitudeMeters>
            <DistanceMeters>50000.0</DistanceMeters>
            <HeartRateBpm><Value>138</Value></HeartRateBpm>
            <Cadence>88</Cadence>
            <Extensions>
              <TPX xmlns="http://www.garmin.com/xmlschemas/ActivityExtension/v2">
                <Watts>185</Watts>
              </TPX>
            </Extensions>
          </Trackpoint>
          <Trackpoint>
            <Time>2026-06-03T11:00:00Z</Time>
            <Position>
              <LatitudeDegrees>51.0504</LatitudeDegrees>
              <LongitudeDegrees>3.7228</LongitudeDegrees>
            </Position>
            <AltitudeMeters>8.0</AltitudeMeters>
            <DistanceMeters>60000.0</DistanceMeters>
            <HeartRateBpm><Value>125</Value></HeartRateBpm>
            <Cadence>85</Cadence>
            <Extensions>
              <TPX xmlns="http://www.garmin.com/xmlschemas/ActivityExtension/v2">
                <Watts>150</Watts>
              </TPX>
            </Extensions>
          </Trackpoint>
        </Track>
      </Lap>
    </Activity>
  </Activities>
</TrainingCenterDatabase>
